{
  "type": "FeatureCollection",
  "features": [
    {
      "type": "Feature",
      "properties": {
        "norad_id": 36744,
        "name": "COMS 1",
        "group": "weather",
        "lat": -1.7089681248806523,
        "lon": -79.43920039590736,
        "alt_km": 35783.19227155905,
        "timestamp": "2025-12-26T03:50:11.729862+00:00",
        "meta_object_name": "COMS 1",
        "meta_object_id": "2010-032A",
        "meta_epoch": "2025-12-25T12:42:15.782112",
        "meta_mean_motion": 1.00270082,
        "meta_eccentricity": 8.88e-05,
        "meta_inclination": 4.3689,
        "meta_ra_of_asc_node": 77.8525,
        "meta_arg_of_pericenter": 213.8569,
        "meta_mean_anomaly": 121.3153,
        "meta_ephemeris_type": 0,
        "meta_classification_type": "U",
        "meta_norad_cat_id": 36744,
        "meta_element_set_no": 999,
        "meta_rev_at_epoch": 4934,
        "meta_bstar": 0,
        "meta_mean_motion_dot": -3.24e-06,
        "meta_mean_motion_ddot": 0,
        "tle_line1": "1 36744U 10032A   25359.52934933 -.00000324  00000+0  00000+0 0  9990",
        "tle_line2": "2 36744   4.3689  77.8525 0000888 213.8569 121.3153  1.00270082 49344"
      },
      "geometry": {
        "type": "Point",
        "coordinates": [
          -79.43920039590736,
          -1.7089681248806523
        ]
      }
    },
    {
      "type": "Feature",
      "properties": {
        "norad_id": 37214,
        "name": "FENGYUN 3B",
        "group": "weather",
        "lat": -50.464446728141276,
        "lon": 51.28531257392365,
        "alt_km": 834.6095111893328,
        "timestamp": "2025-12-26T03:50:11.729876+00:00",
        "meta_object_name": "FENGYUN 3B",
        "meta_object_id": "2010-059A",
        "meta_epoch": "2025-12-25T20:06:28.359072",
        "meta_mean_motion": 14.14793819,
        "meta_eccentricity": 0.0021485,
        "meta_inclination": 98.9886,
        "meta_ra_of_asc_node": 39.9052,
        "meta_arg_of_pericenter": 320.0758,
        "meta_mean_anomaly": 149.4425,
        "meta_ephemeris_type": 0,
        "meta_classification_type": "U",
        "meta_norad_cat_id": 37214,
        "meta_element_set_no": 999,
        "meta_rev_at_epoch": 78291,
        "meta_bstar": 0.0001629,
        "meta_mean_motion_dot": 2.69e-06,
        "meta_mean_motion_ddot": 0,
        "tle_line1": "1 37214U 10059A   25359.83782823  .00000269  00000+0  16290-3 0  9994",
        "tle_line2": "2 37214  98.9886  39.9052 0021485 320.0758 149.4425 14.14793819782913"
      },
      "geometry": {
        "type": "Point",
        "coordinates": [
          51.28531257392365,
          -50.464446728141276
        ]
      }
    },
    {
      "type": "Feature",
      "properties": {
        "norad_id": 37849,
        "name": "SUOMI NPP",
        "group": "weather",
        "lat": 16.947972379838674,
        "lon": -65.31799427529006,
        "alt_km": 827.0117736926622,
        "timestamp": "2025-12-26T03:50:11.729889+00:00",
        "meta_object_name": "SUOMI NPP",
        "meta_object_id": "2011-061A",
        "meta_epoch": "2025-12-22T15:10:21.732672",
        "meta_mean_motion": 14.19516903,
        "meta_eccentricity": 0.00024883,
        "meta_inclination": 98.7787,
        "meta_ra_of_asc_node": 293.8852,
        "meta_arg_of_pericenter": 103.0781,
        "meta_mean_anomaly": 257.0673,
        "meta_ephemeris_type": 0,
        "meta_classification_type": "U",
        "meta_norad_cat_id": 37849,
        "meta_element_set_no": 999,
        "meta_rev_at_epoch": 73339,
        "meta_bstar": 6.3406935e-05,
        "meta_mean_motion_dot": 8.9e-07,
        "meta_mean_motion_ddot": 0,
        "tle_line1": "1 37849U 11061A   25356.63219598  .00000089  00000+0  63407-4 0  9994",
        "tle_line2": "2 37849  98.7787 293.8852 0002488 103.0781 257.0673 14.19516903733392"
      },
      "geometry": {
        "type": "Point",
        "coordinates": [
          -65.31799427529006,
          16.947972379838674
        ]
      }
    },
    {
      "type": "Feature",
      "properties": {
        "norad_id": 38552,
        "name": "METEOSAT-10 (MSG-3)",
        "group": "weather",
        "lat": 4.270951377863929,
        "lon": 152.72332151324454,
        "alt_km": 35793.09808513549,
        "timestamp": "2025-12-26T03:50:11.729902+00:00",
        "meta_object_name": "METEOSAT-10 (MSG-3)",
        "meta_object_id": "2012-035B",
        "meta_epoch": "2025-12-25T04:23:21.555168",
        "meta_mean_motion": 1.00266615,
        "meta_eccentricity": 0.0001469,
        "meta_inclination": 4.256,
        "meta_ra_of_asc_node": 61.6882,
        "meta_arg_of_pericenter": 266.4043,
        "meta_mean_anomaly": 191.9794,
        "meta_ephemeris_type": 0,
        "meta_classification_type": "U",
        "meta_norad_cat_id": 38552,
        "meta_element_set_no": 999,
        "meta_rev_at_epoch": 4911,
        "meta_bstar": 0,
        "meta_mean_motion_dot": 1.4e-07,
        "meta_mean_motion_ddot": 0,
        "tle_line1": "1 38552U 12035B   25359.18288837  .00000014  00000+0  00000+0 0  9996",
        "tle_line2": "2 38552   4.2560  61.6882 0001469 266.4043 191.9794  1.00266615 49110"
      },
      "geometry": {
        "type": "Point",
        "coordinates": [
          152.72332151324454,
          4.270951377863929
        ]
      }
    },
    {
      "type": "Feature",
      "properties": {
        "norad_id": 38771,
        "name": "METOP-B",
        "group": "weather",
        "lat": -38.74465909942676,
        "lon": 56.92943690477688,
        "alt_km": 829.1253581607989,
        "timestamp": "2025-12-26T03:50:11.729913+00:00",
        "meta_object_name": "METOP-B",
        "meta_object_id": "2012-049A",
        "meta_epoch": "2025-12-25T19:34:26.518080",
        "meta_mean_motion": 14.21413214,
        "meta_eccentricity": 0.0003282,
        "meta_inclination": 98.6781,
        "meta_ra_of_asc_node": 49.5516,
        "meta_arg_of_pericenter": 116.929,
        "meta_mean_anomaly": 243.2223,
        "meta_ephemeris_type": 0,
        "meta_classification_type": "U",
        "meta_norad_cat_id": 38771,
        "meta_element_set_no": 999,
        "meta_rev_at_epoch": 68863,
        "meta_bstar": 8.1632e-05,
        "meta_mean_motion_dot": 1.35e-06,
        "meta_mean_motion_ddot": 0,
        "tle_line1": "1 38771U 12049A   25359.81558470  .00000135  00000+0  81632-4 0  9996",
        "tle_line2": "2 38771  98.6781  49.5516 0003282 116.9290 243.2223 14.21413214688632"
      },
      "geometry": {
        "type": "Point",
        "coordinates": [
          56.92943690477688,
          -38.74465909942676
        ]
      }
    },
    {
      "type": "Feature",
      "properties": {
        "norad_id": 39216,
        "name": "INSAT-3D",
        "group": "weather",
        "lat": -0.4555259203472713,
        "lon": -77.98864750623497,
        "alt_km": 35779.424497510285,
        "timestamp": "2025-12-26T03:50:11.729926+00:00",
        "meta_object_name": "INSAT-3D",
        "meta_object_id": "2013-038B",
        "meta_epoch": "2025-12-25T12:13:38.614080",
        "meta_mean_motion": 1.00274026,
        "meta_eccentricity": 0.0001916,
        "meta_inclination": 1.4759,
        "meta_ra_of_asc_node": 84.8528,
        "meta_arg_of_pericenter": 156.7609,
        "meta_mean_anomaly": 165.6101,
        "meta_ephemeris_type": 0,
        "meta_classification_type": "U",
        "meta_norad_cat_id": 39216,
        "meta_element_set_no": 999,
        "meta_rev_at_epoch": 4533,
        "meta_bstar": 0,
        "meta_mean_motion_dot": -3.18e-06,
        "meta_mean_motion_ddot": 0,
        "tle_line1": "1 39216U 13038B   25359.50947470 -.00000318  00000+0  00000+0 0  9997",
        "tle_line2": "2 39216   1.4759  84.8528 0001916 156.7609 165.6101  1.00274026 45332"
      },
      "geometry": {
        "type": "Point",
        "coordinates": [
          -77.98864750623497,
          -0.4555259203472713
        ]
      }
    },
    {
      "type": "Feature",
      "properties": {
        "norad_id": 39260,
        "name": "FENGYUN 3C",
        "group": "weather",
        "lat": -66.43751085891056,
        "lon": -2.8160918578438823,
        "alt_km": 854.766303712463,
        "timestamp": "2025-12-26T03:50:11.729937+00:00",
        "meta_object_name": "FENGYUN 3C",
        "meta_object_id": "2013-052A",
        "meta_epoch": "2025-12-25T21:22:22.674144",
        "meta_mean_motion": 14.15700248,
        "meta_eccentricity": 0.0015018,
        "meta_inclination": 98.4779,
        "meta_ra_of_asc_node": 336.9287,
        "meta_arg_of_pericenter": 158.1855,
        "meta_mean_anomaly": 201.9962,
        "meta_ephemeris_type": 0,
        "meta_classification_type": "U",
        "meta_norad_cat_id": 39260,
        "meta_element_set_no": 999,
        "meta_rev_at_epoch": 63404,
        "meta_bstar": 8.0877e-05,
        "meta_mean_motion_dot": 1.18e-06,
        "meta_mean_motion_ddot": 0,
        "tle_line1": "1 39260U 13052A   25359.89054021  .00000118  00000+0  80877-4 0  9997",
        "tle_line2": "2 39260  98.4779 336.9287 0015018 158.1855 201.9962 14.15700248634040"
      },
      "geometry": {
        "type": "Point",
        "coordinates": [
          -2.8160918578438823,
          -66.43751085891056
        ]
      }
    }
  ]
}